[{"OBJECT_NAME":"OBJECT B","OBJECT_ID":"2024-092B","EPOCH":"2026-03-09T22:35:16.756224","MEAN_MOTION":15.26654665,"ECCENTRICITY":0.00097063,"INCLINATION":97.6334,"RA_OF_ASC_NODE":195.5822,"ARG_OF_PERICENTER":166.5945,"MEAN_ANOMALY":193.5553,"EPHEMERIS_TYPE":0,"CLASSIFICATION_TYPE":"U","NORAD_CAT_ID":59774,"ELEMENT_SET_NO":999,"REV_AT_EPOCH":10038,"BSTAR":0.00052893964,"MEAN_MOTION_DOT":0.00013825,"MEAN_MOTION_DDOT":0},{"OBJECT_NAME":"STARLINK-36067","OBJECT_ID":"2025-288G","EPOCH":"2026-03-09T21:49:15.652416","MEAN_MOTION":15.27574345,"ECCENTRICITY":0.0001357,"INCLINATION":43.0022,"RA_OF_ASC_NODE":21.9852,"ARG_OF_PERICENTER":259.2517,"MEAN_ANOMALY":100.8182,"EPHEMERIS_TYPE":0,"CLASSIFICATION_TYPE":"U","NORAD_CAT_ID":66965,"ELEMENT_SET_NO":999,"REV_AT_EPOCH":1532,"BSTAR":0.0010473701,"MEAN_MOTION_DOT":0.00028666,"MEAN_MOTION_DDOT":0}]
